OBJECT_NAME,OBJECT_ID,EPOCH,MEAN_MOTION,ECCENTRICITY,INCLINATION,RA_OF_ASC_NODE,ARG_OF_PERICENTER,MEAN_ANOMALY,EPHEMERIS_TYPE,CLASSIFICATION_TYPE,NORAD_CAT_ID,ELEMENT_SET_NO,REV_AT_EPOCH,BSTAR,MEAN_MOTION_DOT,MEAN_MOTION_DDOT
HAWK-5A,2022-057AB,2026-07-23T23:42:21.195648,15.52571359,.00029339,97.6635,6.2546,293.8643,66.2301,0,U,52757,999,23205,.30120743E-3,.1841E-3,0
HAWK-6B,2023-011A,2026-07-24T03:56:41.180064,15.23217738,.00045492,40.4982,136.3446,284.9888,75.0418,0,U,55324,999,19348,.22155601E-3,.5162E-4,0
HAWK-6C,2023-011C,2026-07-24T03:55:46.624512,15.23216718,.00050397,40.4972,133.1835,280.7175,79.3067,0,U,55326,999,19349,.21924178E-3,.5106E-4,0
HAWK-6A,2023-011D,2026-07-24T03:55:49.716768,15.23217539,.00048112,40.4984,134.8112,277.2052,82.8211,0,U,55327,999,19349,.21995601E-3,.5124E-4,0
HAWK-7A,2023-054P,2026-07-24T06:04:01.368768,15.27709053,.00009503,97.2653,91.6472,254.5946,105.5189,0,U,56191,999,18268,.2442604E-3,.6542E-4,0
HAWK-7B,2023-054R,2026-07-24T06:03:55.172160,15.27711144,.00002987,97.2682,89.9239,351.0686,9.0549,0,U,56193,999,18268,.24267925E-3,.6499E-4,0
HAWK-7C,2023-054Y,2026-07-24T06:03:44.347104,15.27709537,.00003829,97.2657,90.6812,228.3922,131.7285,0,U,56200,999,18268,.24023984E-3,.6433E-4,0
