{"epoch":1784902576,"count":18312,"objects":[{"id":"52757","name":"HAWK-5A","type":"PAYLOAD","l1":"1 52757U 22057AB  26204.98774532  .00018410  00000-0  30121-3 0  9995","l2":"2 52757  97.6635   6.2546 0002934 293.8643  66.2301 15.52571359232053"},{"id":"55324","name":"HAWK-6B","type":"PAYLOAD","l1":"1 55324U 23011A   26205.16436551  .00005162  00000-0  22156-3 0  9995","l2":"2 55324  40.4982 136.3446 0004549 284.9888  75.0418 15.23217738193483"},{"id":"55326","name":"HAWK-6C","type":"PAYLOAD","l1":"1 55326U 23011C   26205.16373408  .00005106  00000-0  21924-3 0  9998","l2":"2 55326  40.4972 133.1835 0005040 280.7175  79.3067 15.23216718193496"},{"id":"55327","name":"HAWK-6A","type":"PAYLOAD","l1":"1 55327U 23011D   26205.16376987  .00005124  00000-0  21996-3 0  9993","l2":"2 55327  40.4984 134.8112 0004811 277.2052  82.8211 15.23217539193498"},{"id":"56191","name":"HAWK-7A","type":"PAYLOAD","l1":"1 56191U 23054P   26205.25279362  .00006542  00000-0  24426-3 0  9995","l2":"2 56191  97.2653  91.6472 0000950 254.5946 105.5189 15.27709053182687"},{"id":"56193","name":"HAWK-7B","type":"PAYLOAD","l1":"1 56193U 23054R   26205.25272190  .00006499  00000-0  24268-3 0  9994","l2":"2 56193  97.2682  89.9239 0000299 351.0686   9.0549 15.27711144182684"},{"id":"56200","name":"HAWK-7C","type":"PAYLOAD","l1":"1 56200U 23054Y   26205.25259661  .00006433  00000-0  24024-3 0  9999","l2":"2 56200  97.2657  90.6812 0000383 228.3922 131.7285 15.27709537182687"}]}